NORAD_CAT_ID,OBJECT_NAME,OBJECT_TYPE,EPOCH,MEAN_MOTION,ECCENTRICITY,INCLINATION,RA_OF_ASC_NODE,ARG_OF_PERICENTER,MEAN_ANOMALY,BSTAR,MEAN_MOTION_DOT,MEAN_MOTION_DDOT,TLE_LINE0,TLE_LINE1,TLE_LINE2,SEMIMAJOR_AXIS,PERIOD,APOGEE,PERIGEE,DECAYED
53550.0,STARLINK-4518,PAYLOAD,2024-06-09 17:10:29,15.08832813,0.0001024,53.218,48.0978,84.0646,276.0463,5.2485e-05,5.47e-06,0.0,0 STARLINK-4518,1 53550U 22101Z   24161.71562448  .00000547  00000-0  52485-4 0  9999,2 53550  53.2180  48.0978 0001024  84.0646 276.0463 15.08832813 99993,6917.902,95.438,540.476,539.059,0.0
53550.0,STARLINK-4518,PAYLOAD,2024-06-09 23:32:02,15.08836009,0.0001005,53.2178,46.9073,67.3377,292.7722,8.9563e-05,1.138e-05,0.0,0 STARLINK-4518,1 53550U 22101Z   24161.98058291  .00001138  00000-0  89563-4 0  9998,2 53550  53.2178  46.9073 0001005  67.3377 292.7722 15.08836009100691,6917.893,95.438,540.453,539.062,0.0
53550.0,STARLINK-4518,PAYLOAD,2024-06-10 09:04:20,15.08846683,0.0001078,53.2184,45.1234,67.89,292.2206,0.00015178,2.129e-05,0.0,0 STARLINK-4518,1 53550U 22101Z   24162.37801591  .00002129  00000-0  15178-3 0  9992,2 53550  53.2184  45.1234 0001078  67.8900 292.2206 15.08846683100090,6917.86,95.437,540.471,538.979,0.0
53550.0,STARLINK-4518,PAYLOAD,2024-06-10 20:12:03,15.08830984,0.0001694,53.2185,43.0441,77.4506,282.6675,9.5425e-05,1.231e-05,0.0,0 STARLINK-4518,1 53550U 22101Z   24162.84170908  .00001231  00000-0  95425-4 0  9992,2 53550  53.2185  43.0441 0001694  77.4506 282.6675 15.08830984100169,6917.908,95.438,540.945,538.601,0.0
53550.0,STARLINK-4518,PAYLOAD,2024-06-10 21:47:26,15.0882901,0.0001269,53.2182,42.7466,80.1219,279.9916,7.7727e-05,9.49e-06,0.0,0 STARLINK-4518,1 53550U 22101Z   24162.90795028  .00000949  00000-0  77727-4 0  9995,2 53550  53.2182  42.7466 0001269  80.1219 279.9916 15.08829010100838,6917.914,95.438,540.657,538.901,0.0
53550.0,STARLINK-4518,PAYLOAD,2024-06-11 08:55:07,15.08845684,0.0001356,53.2194,40.6666,87.6966,272.4181,0.00017153,2.443e-05,0.0,0 STARLINK-4518,1 53550U 22101Z   24163.37161889  .00002443  00000-0  17153-3 0  9996,2 53550  53.2194  40.6666 0001356  87.6966 272.4181 15.08845684100903,6917.863,95.437,540.666,538.79,0.0
53550.0,STARLINK-4518,PAYLOAD,2024-06-11 23:13:36,15.08841743,0.000124,53.2185,37.9901,90.3558,269.7576,8.7999e-05,1.113e-05,0.0,0 STARLINK-4518,1 53550U 22101Z   24163.96778286  .00001113  00000-0  87999-4 0  9995,2 53550  53.2185  37.9901 0001240  90.3558 269.7576 15.08841743100330,6917.875,95.437,540.598,538.882,0.0
53550.0,STARLINK-4518,PAYLOAD,2024-06-12 08:45:53,15.08864149,0.0001363,53.2196,36.2023,78.7304,281.3841,9.6505e-05,1.249e-05,0.0,0 STARLINK-4518,1 53550U 22101Z   24164.36520548  .00001249  00000-0  96505-4 0  9999,2 53550  53.2196  36.2023 0001363  78.7304 281.3841 15.08864149100390,6917.807,95.436,540.614,538.729,0.0
53550.0,STARLINK-4518,PAYLOAD,2024-06-12 19:53:38,15.08823808,0.0001536,53.2198,34.1245,86.8065,273.3103,-4.9032e-06,-3.66e-06,0.0,0 STARLINK-4518,1 53550U 22101Z   24164.82891594 -.00000366  00000-0 -49032-5 0  9997,2 53550  53.2198  34.1245 0001536  86.8065 273.3103 15.08823808100468,6917.93,95.439,540.857,538.732,0.0
53550.0,STARLINK-4518,PAYLOAD,2024-06-12 21:29:01,15.08830224,0.000155,53.2197,33.8279,85.3393,274.7776,-8.3471e-05,-1.616e-05,0.0,0 STARLINK-4518,1 53550U 22101Z   24164.89515488 -.00001616  00000-0 -83471-4 0  9992,2 53550  53.2197  33.8279 0001550  85.3393 274.7776 15.08830224101130,6917.91,95.438,540.848,538.703,0.0
53550.0,STARLINK-4518,PAYLOAD,2024-06-13 08:36:42,15.08843584,0.0001455,53.2192,31.7457,86.552,273.5638,5.1622e-06,-2.06e-06,0.0,0 STARLINK-4518,1 53550U 22101Z   24165.35882377 -.00000206  00000-0  51622-5 0  9995,2 53550  53.2192  31.7457 0001455  86.5520 273.5638 15.08843584100540,6917.869,95.437,540.741,538.728,0.0
53550.0,STARLINK-4518,PAYLOAD,2024-06-13 14:58:15,15.08841864,0.0001792,53.219,30.5568,86.2819,273.8378,1.9055e-05,1.5e-07,0.0,0 STARLINK-4518,1 53550U 22101Z   24165.62378550  .00000015  00000-0  19055-4 0  9998,2 53550  53.2190  30.5568 0001792  86.2819 273.8378 15.08841864101241,6917.875,95.437,540.979,538.5,0.0
53550.0,STARLINK-4518,PAYLOAD,2024-06-13 21:19:47,15.08845606,0.0001532,53.22,29.3659,86.0434,274.0733,2.5844e-05,1.23e-06,0.0,0 STARLINK-4518,1 53550U 22101Z   24165.88874322  .00000123  00000-0  25844-4 0  9997,2 53550  53.2200  29.3659 0001532  86.0434 274.0733 15.08845606101283,6917.863,95.437,540.788,538.668,0.0
53550.0,STARLINK-4518,PAYLOAD,2024-06-14 08:27:28,15.08851925,0.0001502,53.2198,27.2835,86.7651,273.3513,9.2373e-05,1.183e-05,0.0,0 STARLINK-4518,1 53550U 22101Z   24166.35241671  .00001183  00000-0  92373-4 0  9993,2 53550  53.2198  27.2835 0001502  86.7651 273.3513 15.08851925101354,6917.844,95.437,540.748,538.67,0.0
53550.0,STARLINK-4518,PAYLOAD,2024-06-14 21:10:34,15.08835264,0.0001736,53.2211,24.9053,95.8089,264.3101,0.0001862,2.676e-05,0.0,0 STARLINK-4518,1 53550U 22101Z   24166.88234621  .00002676  00000-0  18620-3 0  9998,2 53550  53.2211  24.9053 0001736  95.8089 264.3101 15.08835264101431,6917.895,95.438,540.961,538.559,0.0
53550.0,STARLINK-4518,PAYLOAD,2024-06-15 00:21:20,15.08839032,0.0001651,53.2211,24.3103,83.9057,276.2123,0.0001324,1.82e-05,0.0,0 STARLINK-4518,1 53550U 22101Z   24167.01482551  .00001820  00000-0  13240-3 0  9994,2 53550  53.2211  24.3103 0001651  83.9057 276.2123 15.08839032101455,6917.883,95.438,540.89,538.606,0.0
53550.0,STARLINK-4518,PAYLOAD,2024-06-15 21:01:21,15.08841228,0.0001295,53.2179,20.4468,89.9226,270.1915,5.5939e-05,6.03e-06,0.0,0 STARLINK-4518,1 53550U 22101Z   24167.87594476  .00000603  00000-0  55939-4 0  9998,2 53550  53.2179  20.4468 0001295  89.9226 270.1915 15.08841228101583,6917.877,95.437,540.638,538.846,0.0
53550.0,STARLINK-4518,PAYLOAD,2024-06-16 14:30:36,15.08835854,0.0001267,53.2176,17.1753,91.0637,269.05,5.2785e-05,5.52e-06,0.0,0 STARLINK-4518,1 53550U 22101Z   24168.60458796  .00000552  00000-0  52785-4 0  9993,2 53550  53.2176  17.1753 0001267  91.0637 269.0500 15.08835854101696,6917.893,95.438,540.635,538.882,0.0
53550.0,STARLINK-4518,PAYLOAD,2024-06-16 20:52:09,15.0883305,0.0001221,53.2177,15.9839,96.9929,263.1202,-9.1259e-06,-4.33e-06,0.0,0 STARLINK-4518,1 53550U 22101Z   24168.86955218 -.00000433  00000-0 -91259-5 0  9992,2 53550  53.2177  15.9839 0001221  96.9929 263.1202 15.08833050101731,6917.902,95.438,540.611,538.922,0.0
53550.0,STARLINK-4518,PAYLOAD,2024-06-17 20:42:56,15.0883412,0.00014,53.2191,11.5267,100.823,259.292,3.2467e-05,2.29e-06,0.0,0 STARLINK-4518,1 53550U 22101Z   24169.86315355  .00000229  00000-0  32467-4 0  9991,2 53550  53.2191  11.5267 0001400 100.8230 259.2920 15.08834120101229,6917.898,95.438,540.732,538.795,0.0
53550.0,STARLINK-4518,PAYLOAD,2024-06-18 06:15:14,15.08845419,0.0001525,53.2202,9.743,98.0619,262.0546,0.00011159,1.489e-05,0.0,0 STARLINK-4518,1 53550U 22101Z   24170.26058445  .00001489  00000-0  11159-3 0  9994,2 53550  53.2202   9.7430 0001525  98.0619 262.0546 15.08845419101285,6917.864,95.437,540.784,538.674,0.0
53550.0,STARLINK-4518,PAYLOAD,2024-06-18 18:58:20,15.08833823,0.0001539,53.2201,7.3637,100.3558,259.7608,0.00010131,1.324e-05,0.0,0 STARLINK-4518,1 53550U 22101Z   24170.79051294  .00001324  00000-0  10131-3 0  9994,2 53550  53.2201   7.3637 0001539 100.3558 259.7608 15.08833823101368,6917.899,95.438,540.829,538.7,0.0
53550.0,STARLINK-4518,PAYLOAD,2024-06-18 22:09:06,15.08836839,0.0001622,53.2181,6.765,85.9245,274.1933,0.00011426,1.531e-05,0.0,0 STARLINK-4518,1 53550U 22101Z   24170.92299219  .00001531  00000-0  11426-3 0  9998,2 53550  53.2181   6.7650 0001622  85.9245 274.1933 15.08836839102045,6917.89,95.438,540.877,538.633,0.0
53550.0,STARLINK-4518,PAYLOAD,2024-06-19 06:06:01,15.08849904,0.0001604,53.2187,5.2803,82.704,277.4135,0.00014327,1.993e-05,0.0,0 STARLINK-4518,1 53550U 22101Z   24171.25418175  .00001993  00000-0  14327-3 0  9994,2 53550  53.2187   5.2803 0001604  82.7040 277.4135 15.08849904101432,6917.85,95.437,540.825,538.605,0.0
53550.0,STARLINK-4518,PAYLOAD,2024-06-19 20:24:30,15.08838955,0.0001516,53.2196,2.6046,85.9642,274.1523,-3.6484e-05,-8.69e-06,0.0,0 STARLINK-4518,1 53550U 22101Z   24171.85035453 -.00000869  00000-0 -36484-4 0  9996,2 53550  53.2196   2.6046 0001516  85.9642 274.1523 15.08838955101526,6917.884,95.438,540.797,538.7,0.0
53550.0,STARLINK-4518,PAYLOAD,2024-06-20 05:56:48,15.08844815,0.0001545,53.2201,0.8211,86.4154,273.7015,1.8709e-05,1e-07,0.0,0 STARLINK-4518,1 53550U 22101Z   24172.24778886  .00000010  00000-0  18709-4 0  9990,2 53550  53.2201   0.8211 0001545  86.4154 273.7015 15.08844815102246,6917.866,95.437,540.799,538.662,0.0
53550.0,STARLINK-4518,PAYLOAD,2024-06-20 21:50:40,15.08838531,0.0001284,53.2181,357.8435,95.9408,264.173,-2.5022e-05,-6.86e-06,0.0,0 STARLINK-4518,1 53550U 22101Z   24172.91019441 -.00000686  00000-0 -25022-4 0  9996,2 53550  53.2181 357.8435 0001284  95.9408 264.1730 15.08838531101686,6917.885,95.438,540.638,538.862,0.0
53550.0,STARLINK-4518,PAYLOAD,2024-06-21 12:09:08,15.08844847,0.0001164,53.2182,355.1666,101.3955,258.7167,-3.6447e-05,-8.68e-06,0.0,0 STARLINK-4518,1 53550U 22101Z   24173.50635003 -.00000868  00000-0 -36447-4 0  9995,2 53550  53.2182 355.1666 0001164 101.3955 258.7167 15.08844847102434,6917.866,95.437,540.536,538.925,0.0
53550.0,STARLINK-4518,PAYLOAD,2024-06-21 18:30:41,15.08843038,0.00013,53.218,353.9788,95.6209,264.4931,8.5277e-05,1.07e-05,0.0,0 STARLINK-4518,1 53550U 22101Z   24173.77130915  .00001070  00000-0  85277-4 0  9995,2 53550  53.2180 353.9788 0001300  95.6209 264.4931 15.08843038101817,6917.871,95.437,540.635,538.837,0.0
53550.0,STARLINK-4518,PAYLOAD,2024-06-22 11:59:55,15.08837216,0.000127,53.2173,350.7088,91.3106,268.8032,0.00012566,1.712e-05,0.0,0 STARLINK-4518,1 53550U 22101Z   24174.49995219  .00001712  00000-0  12566-3 0  9994,2 53550  53.2173 350.7088 0001270  91.3106 268.8032 15.08837216102588,6917.889,95.438,540.632,538.875,0.0
